{
  "norad_id": 55351,
  "name": "STARLINK-5659",
  "history": [
    {
      "epoch": "2026-03-28T22:00:01.999584Z",
      "apogee_km": 502.9808179297479,
      "perigee_km": 500.45398500517695,
      "latitude_deg": -9.272204675648782,
      "longitude_deg": -131.9308194827196,
      "height_km": 503.02039880075364,
      "semi_major_axis_km": 6879.854401467463,
      "eccentricity": 0.00018364,
      "inclination_deg": 43.0022,
      "raan_deg": 194.3818,
      "arg_perigee_deg": 277.1585,
      "mean_anomaly_deg": 276.3644,
      "mean_motion_rev_day": 15.21366647
    },
    {
      "epoch": "2026-03-29T04:00:01.999584Z",
      "apogee_km": 502.0434737528767,
      "perigee_km": 499.76100853266416,
      "latitude_deg": 34.34133588367129,
      "longitude_deg": 79.63198868915704,
      "height_km": 503.17124836360944,
      "semi_major_axis_km": 6879.03924114277,
      "eccentricity": 0.0001659,
      "inclination_deg": 43.0024,
      "raan_deg": 192.9824,
      "arg_perigee_deg": 269.2908,
      "mean_anomaly_deg": 215.1957,
      "mean_motion_rev_day": 15.21637076
    },
    {
      "epoch": "2026-03-30T04:00:01.999584Z",
      "apogee_km": 498.51133101189134,
      "perigee_km": 496.27678341829596,
      "latitude_deg": -20.675009847018035,
      "longitude_deg": 143.53966490942818,
      "height_km": 501.17906730754044,
      "semi_major_axis_km": 6875.531057215093,
      "eccentricity": 0.0001625,
      "inclination_deg": 42.9995,
      "raan_deg": 187.3785,
      "arg_perigee_deg": 249.7936,
      "mean_anomaly_deg": 321.145,
      "mean_motion_rev_day": 15.22801829
    },
    {
      "epoch": "2026-03-30T06:00:02.000160Z",
      "apogee_km": 498.2887236019633,
      "perigee_km": 495.8186051000739,
      "latitude_deg": -32.50697915833893,
      "longitude_deg": -133.5531898561074,
      "height_km": 505.09200491865533,
      "semi_major_axis_km": 6875.190664351018,
      "eccentricity": 0.00017964,
      "inclination_deg": 43.0003,
      "raan_deg": 186.9109,
      "arg_perigee_deg": 269.7302,
      "mean_anomaly_deg": 38.6119,
      "mean_motion_rev_day": 15.22914922
    },
    {
      "epoch": "2026-03-30T14:00:03.000384Z",
      "apogee_km": 497.06667267625653,
      "perigee_km": 494.6052404399725,
      "latitude_deg": -14.71546325879163,
      "longitude_deg": 130.79416319679757,
      "height_km": 497.8348564635758,
      "semi_major_axis_km": 6873.972956558115,
      "eccentricity": 0.00017904,
      "inclination_deg": 43.0008,
      "raan_deg": 185.0446,
      "arg_perigee_deg": 290.8255,
      "mean_anomaly_deg": 47.4983,
      "mean_motion_rev_day": 15.23319611
    },
    {
      "epoch": "2026-03-30T22:00:00.999936Z",
      "apogee_km": 495.9262192846063,
      "perigee_km": 493.1530942536001,
      "latitude_deg": 5.837670564686632,
      "longitude_deg": 31.124545418650847,
      "height_km": 493.3398668447626,
      "semi_major_axis_km": 6872.676656769103,
      "eccentricity": 0.00020175,
      "inclination_deg": 43.0005,
      "raan_deg": 183.1707,
      "arg_perigee_deg": 295.6542,
      "mean_anomaly_deg": 72.9337,
      "mean_motion_rev_day": 15.23750616
    },
    {
      "epoch": "2026-03-31T20:00:01.999008Z",
      "apogee_km": 492.6935335731532,
      "perigee_km": 489.8207529424426,
      "latitude_deg": 3.2178961054946544,
      "longitude_deg": 52.24296754674586,
      "height_km": 490.15790772438544,
      "semi_major_axis_km": 6869.394143257798,
      "eccentricity": 0.0002091,
      "inclination_deg": 43.0003,
      "raan_deg": 178.019,
      "arg_perigee_deg": 295.7681,
      "mean_anomaly_deg": 68.9874,
      "mean_motion_rev_day": 15.24842924
    },
    {
      "epoch": "2026-04-01T20:00:01.999008Z",
      "apogee_km": 487.4658547350891,
      "perigee_km": 485.09900291602935,
      "latitude_deg": 41.86725951421982,
      "longitude_deg": 149.29933820687097,
      "height_km": 490.3099678670311,
      "semi_major_axis_km": 6864.4194288255585,
      "eccentricity": 0.0001724,
      "inclination_deg": 43.0006,
      "raan_deg": 172.39,
      "arg_perigee_deg": 294.5008,
      "mean_anomaly_deg": 168.1681,
      "mean_motion_rev_day": 15.26500828
    },
    {
      "epoch": "2026-04-02T20:00:01.999008Z",
      "apogee_km": 486.579973573409,
      "perigee_km": 484.5098871032196,
      "latitude_deg": -16.82349386072151,
      "longitude_deg": -125.61913972395551,
      "height_km": 488.8013773560538,
      "semi_major_axis_km": 6863.6819303383145,
      "eccentricity": 0.0001508,
      "inclination_deg": 42.9999,
      "raan_deg": 166.7539,
      "arg_perigee_deg": 284.6471,
      "mean_anomaly_deg": 280.2586,
      "mean_motion_rev_day": 15.26746867
    },
    {
      "epoch": "2026-04-02T22:00:01.999584Z",
      "apogee_km": 486.49958102457094,
      "perigee_km": 484.4996545868744,
      "latitude_deg": -34.84520670299649,
      "longitude_deg": -42.92309924019324,
      "height_km": 494.5167876077593,
      "semi_major_axis_km": 6863.636617805722,
      "eccentricity": 0.00014569,
      "inclination_deg": 43.0004,
      "raan_deg": 166.2836,
      "arg_perigee_deg": 280.5202,
      "mean_anomaly_deg": 22.9525,
      "mean_motion_rev_day": 15.26761986
    },
    {
      "epoch": "2026-04-03T20:00:01.999008Z",
      "apogee_km": 486.56669394223354,
      "perigee_km": 484.6077870439967,
      "latitude_deg": -32.85184581753635,
      "longitude_deg": -14.578816848844584,
      "height_km": 493.86635268870674,
      "semi_major_axis_km": 6863.724240493115,
      "eccentricity": 0.0001427,
      "inclination_deg": 42.9999,
      "raan_deg": 161.1149,
      "arg_perigee_deg": 278.97,
      "mean_anomaly_deg": 28.6845,
      "mean_motion_rev_day": 15.2673275
    },
    {
      "epoch": "2026-04-04T06:00:02.000160Z",
      "apogee_km": 486.5074389141091,
      "perigee_km": 484.6844314465243,
      "latitude_deg": 42.419534638822256,
      "longitude_deg": -46.79045432192715,
      "height_km": 489.48528010438116,
      "semi_major_axis_km": 6863.732935180316,
      "eccentricity": 0.0001328,
      "inclination_deg": 42.9999,
      "raan_deg": 158.7648,
      "arg_perigee_deg": 269.7084,
      "mean_anomaly_deg": 170.7347,
      "mean_motion_rev_day": 15.26729849
    },
    {
      "epoch": "2026-04-05T00:00:02.000160Z",
      "apogee_km": 486.5352666373192,
      "perigee_km": 484.6739571870012,
      "latitude_deg": -39.214496104987596,
      "longitude_deg": -158.3018782707989,
      "height_km": 496.44662399514186,
      "semi_major_axis_km": 6863.74161191216,
      "eccentricity": 0.00013559,
      "inclination_deg": 42.9999,
      "raan_deg": 154.5328,
      "arg_perigee_deg": 266.3236,
      "mean_anomaly_deg": 341.1493,
      "mean_motion_rev_day": 15.26726954
    },
    {
      "epoch": "2026-04-05T03:37:57.732960Z",
      "apogee_km": 486.5563452252327,
      "perigee_km": 484.7539134120743,
      "latitude_deg": -2.110346730044701e-06,
      "longitude_deg": -94.27193816219655,
      "height_km": 485.31621731858604,
      "semi_major_axis_km": 6863.792129318653,
      "eccentricity": 0.0001313,
      "inclination_deg": 42.9998,
      "raan_deg": 153.6797,
      "arg_perigee_deg": 277.3705,
      "mean_anomaly_deg": 82.6997,
      "mean_motion_rev_day": 15.26710099
    },
    {
      "epoch": "2026-04-06T04:45:14.396256Z",
      "apogee_km": 486.5153053320537,
      "perigee_km": 484.5797462957744,
      "latitude_deg": -6.246117279881683e-06,
      "longitude_deg": -118.02706992475821,
      "height_km": 485.2584026315879,
      "semi_major_axis_km": 6863.684525813914,
      "eccentricity": 0.000141,
      "inclination_deg": 43.001,
      "raan_deg": 147.7757,
      "arg_perigee_deg": 273.9125,
      "mean_anomaly_deg": 86.1565,
      "mean_motion_rev_day": 15.26746001
    },
    {
      "epoch": "2026-04-07T10:35:12.237504Z",
      "apogee_km": 486.4654570738603,
      "perigee_km": 484.6821277357776,
      "latitude_deg": 3.9749205926946416e-05,
      "longitude_deg": 146.24538380320573,
      "height_km": 485.2479214429014,
      "semi_major_axis_km": 6863.710792404819,
      "eccentricity": 0.00012991,
      "inclination_deg": 43.002,
      "raan_deg": 140.7643,
      "arg_perigee_deg": 276.6202,
      "mean_anomaly_deg": 83.4502,
      "mean_motion_rev_day": 15.26737237
    },
    {
      "epoch": "2026-04-07T20:00:26.908992Z",
      "apogee_km": 486.4017767249288,
      "perigee_km": 484.7187981500483,
      "latitude_deg": -2.369986131870271e-06,
      "longitude_deg": 2.3326104081111154,
      "height_km": 485.28982196607404,
      "semi_major_axis_km": 6863.697287437488,
      "eccentricity": 0.0001226,
      "inclination_deg": 43.0017,
      "raan_deg": 138.5496,
      "arg_perigee_deg": 273.2222,
      "mean_anomaly_deg": 86.8489,
      "mean_motion_rev_day": 15.26741743
    },
    {
      "epoch": "2026-04-08T11:42:31.284576Z",
      "apogee_km": 486.3998783256138,
      "perigee_km": 484.69754699516125,
      "latitude_deg": -1.1492632384141625e-05,
      "longitude_deg": 122.47934108043478,
      "height_km": 485.2258787790055,
      "semi_major_axis_km": 6863.685712660387,
      "eccentricity": 0.00012401,
      "inclination_deg": 43.0018,
      "raan_deg": 134.8594,
      "arg_perigee_deg": 276.7262,
      "mean_anomaly_deg": 83.3448,
      "mean_motion_rev_day": 15.26745605
    },
    {
      "epoch": "2026-04-09T09:41:26.221344Z",
      "apogee_km": 486.38229515686635,
      "perigee_km": 484.7366552899666,
      "latitude_deg": -1.8877954532048298e-06,
      "longitude_deg": 146.6816797083144,
      "height_km": 485.1925122191038,
      "semi_major_axis_km": 6863.696475223416,
      "eccentricity": 0.00011988,
      "inclination_deg": 43.0019,
      "raan_deg": 129.6934,
      "arg_perigee_deg": 280.0646,
      "mean_anomaly_deg": 80.007,
      "mean_motion_rev_day": 15.26742014
    }
  ]
}